OBJECT_NAME,OBJECT_ID,EPOCH,MEAN_MOTION,ECCENTRICITY,INCLINATION,RA_OF_ASC_NODE,ARG_OF_PERICENTER,MEAN_ANOMALY,EPHEMERIS_TYPE,CLASSIFICATION_TYPE,NORAD_CAT_ID,ELEMENT_SET_NO,REV_AT_EPOCH,BSTAR,MEAN_MOTION_DOT,MEAN_MOTION_DDOT
FLORIPASAT-1,2019-093G,2026-06-19T19:41:20.018112,15.03892194,.0012396,97.7907,265.0687,63.6214,296.6283,0,U,44885,999,35304,.31055E-3,.4222E-4,0
SHUNTIAN,2019-093H,2026-06-19T19:38:02.887872,14.95170316,.0013152,97.8016,258.9657,59.7762,300.4759,0,U,44886,999,35257,.11858E-3,.1245E-4,0
ELEKTRO-L 3,2019-095A,2026-06-19T19:17:31.768224,1.00271400,.0000971,0.2651,81.5608,354.1482,197.6501,0,U,44903,999,2373,0,-.102E-5,0
GONETS-M 14,2019-096A,2026-06-19T18:50:35.283840,12.42870387,.0013647,82.5238,83.0305,142.4061,217.7975,0,U,44905,999,29400,.10042E-2,.149E-5,0
GONETS-M 15,2019-096B,2026-06-19T19:32:55.240800,12.42872031,.0015016,82.5257,83.4742,165.5831,194.5680,0,U,44906,999,29397,.10748E-2,.159E-5,0
GONETS-M 16,2019-096C,2026-06-19T20:10:36.409152,12.42891873,.0009904,82.5203,82.4090,208.2564,151.7979,0,U,44907,999,29396,.48452E-3,.77E-6,0
RS-44 & BREEZE-KM R/B,2019-096E,2026-06-19T12:10:04.627200,12.79748873,.02182571,82.5220,338.1631,138.7616,223.0205,0,U,44909,999,30264,-.9791032E-5,.1E-6,0
JILIN-1 KUANFU 01,2020-003A,2026-06-19T19:15:33.311232,15.10736869,.0008173,97.5028,244.7069,297.2013,62.8383,0,U,45016,999,35572,.13974E-3,.2254E-4,0
XINGYUN-2 01,2020-028A,2026-06-19T20:32:14.596800,15.11814839,.000868,97.4865,163.2034,184.2514,175.8645,0,U,45602,999,33524,.11298E-3,.1867E-4,0
XINGYUN-2 02,2020-028B,2026-06-19T20:02:07.774944,15.11542131,.0009209,97.5064,176.7798,262.2864,97.7321,0,U,45603,999,33523,.68929E-4,.1105E-4,0
HAIYANG-1D,2020-036A,2026-06-19T20:00:17.793792,14.34173460,.000354,98.4561,112.4561,122.7312,237.4215,0,U,45721,999,31535,-.24709E-4,-.112E-5,0
M2 PATHFINDER,2020-037E,2026-06-19T13:46:25.067136,15.04681666,.00125074,97.8143,1.8325,139.3083,220.9080,0,U,45727,999,32585,.89866121E-4,.1202E-4,0
GAOFEN DUOMO (GFDM),2020-042A,2026-06-19T20:23:37.622400,14.76881259,.0012367,97.7740,230.6391,67.3419,292.9098,0,U,45856,999,32140,.1747E-4,.74E-6,0
ZIYUAN 3-03 (ZY 3-03),2020-051A,2026-06-19T21:08:41.425728,15.21269321,.0002694,97.2825,238.5201,332.3188,27.7904,0,U,45939,999,32775,.47602E-4,.997E-5,0
NEMO-HD,2020-061F,2026-06-19T20:24:57.883680,15.44639002,.000216,97.1914,232.7769,79.2685,280.8807,0,U,46277,999,32239,.18922E-3,.8726E-4,0
NAPA-1,2020-061BA,2026-06-19T20:13:40.658880,15.68291132,.000157,97.2454,245.1100,174.0522,186.0758,0,U,46320,999,32215,.52618E-3,.59062E-3,0
JILIN-1 GAOFEN 3E,2020-065D,2026-06-19T20:17:40.157088,15.63906383,.001291,97.2237,223.5164,149.0899,211.1123,0,U,46457,999,32017,.56788E-3,.53691E-3,0
JILIN-1 GAOFEN 3F,2020-065E,2026-06-19T19:28:02.280864,15.61138119,.0014464,97.2194,220.8043,137.8602,222.3770,0,U,46458,999,32011,.56898E-3,.48328E-3,0
JILIN-1 GAOFEN 3G,2020-065F,2026-06-19T10:34:02.815104,15.71579926,.00077416,97.2260,227.2682,56.5145,303.6858,0,U,46459,999,32029,.70919132E-3,.91721E-3,0
JILIN-1 GAOFEN 3H,2020-065G,2026-06-19T20:43:35.947200,15.68118417,.0003236,97.2204,224.0181,332.5585,27.5505,0,U,46460,999,32030,.59445E-3,.66344E-3,0
HAIYANG-2C,2020-066A,2026-06-19T20:10:35.381856,13.83375602,.0008826,65.9952,208.6776,237.8020,122.2193,0,U,46469,999,28986,-.7927E-4,-.169E-5,0
HJ-2A,2020-067A,2026-06-19T19:23:44.579904,14.76519240,.0002372,97.8825,249.1189,254.0405,106.0544,0,U,46478,999,30864,.83219E-4,.53E-5,0
HJ-2B,2020-067B,2026-06-19T20:16:45.051168,14.76560137,.0001339,97.8889,250.1785,101.2677,258.8683,0,U,46479,999,30865,.62181E-4,.384E-5,0
GONETS-M 17,2020-068A,2026-06-19T20:46:49.583424,12.42872863,.0022983,82.4990,345.8353,31.8656,328.3809,0,U,46486,999,25949,-.62539E-3,-.77E-6,0
GONETS-M 18,2020-068B,2026-06-19T19:54:29.447136,12.42873254,.0020209,82.4944,344.9747,28.6735,331.5452,0,U,46487,999,25947,-.55932E-3,-.68E-6,0
GONETS-M 19,2020-068C,2026-06-19T19:19:02.241984,12.42891785,.001417,82.4969,345.4410,44.4234,315.7980,0,U,46488,999,25957,-.59932E-3,-.73E-6,0
DEKART,2020-068H,2026-06-19T19:26:50.428032,15.37399147,.0006994,97.8741,180.2682,274.2746,85.7697,0,U,46493,999,31617,.27757E-3,.10095E-3,0
