FLORIPASAT-1            
1 44885U 19093G   26170.82037058  .00004222  00000+0  31055-3 0  9996
2 44885  97.7907 265.0687 0012396  63.6214 296.6283 15.03892194353040
SHUNTIAN                
1 44886U 19093H   26170.81808898  .00001245  00000+0  11858-3 0  9995
2 44886  97.8016 258.9657 0013152  59.7762 300.4759 14.95170316352570
ELEKTRO-L 3             
1 44903U 19095A   26170.80383991 -.00000102  00000+0  00000+0 0  9993
2 44903   0.2651  81.5608 0000971 354.1482 197.6501  1.00271400 23737
GONETS-M 14             
1 44905U 19096A   26170.78513060  .00000149  00000+0  10042-2 0  9995
2 44905  82.5238  83.0305 0013647 142.4061 217.7975 12.42870387294005
GONETS-M 15             
1 44906U 19096B   26170.81452825  .00000159  00000+0  10748-2 0  9995
2 44906  82.5257  83.4742 0015016 165.5831 194.5680 12.42872031293977
GONETS-M 16             
1 44907U 19096C   26170.84069918  .00000077  00000+0  48452-3 0  9999
2 44907  82.5203  82.4090 0009904 208.2564 151.7979 12.42891873293961
RS-44 & BREEZE-KM R/B   
1 44909U 19096E   26170.50699800  .00000010  00000+0 -97910-5 0  9996
2 44909  82.5220 338.1631 0218257 138.7616 223.0205 12.79748873302644
JILIN-1 KUANFU 01       
1 45016U 20003A   26170.80246888  .00002254  00000+0  13974-3 0  9990
2 45016  97.5028 244.7069 0008173 297.2013  62.8383 15.10736869355722
XINGYUN-2 01            
1 45602U 20028A   26170.85572450  .00001867  00000+0  11298-3 0  9996
2 45602  97.4865 163.2034 0008680 184.2514 175.8645 15.11814839335248
XINGYUN-2 02            
1 45603U 20028B   26170.83481221  .00001105  00000+0  68929-4 0  9999
2 45603  97.5064 176.7798 0009209 262.2864  97.7321 15.11542131335235
HAIYANG-1D              
1 45721U 20036A   26170.83353928 -.00000112  00000+0 -24709-4 0  9998
2 45721  98.4561 112.4561 0003540 122.7312 237.4215 14.34173460315358
M2 PATHFINDER           
1 45727U 20037E   26170.57390124  .00001202  00000+0  89866-4 0  9999
2 45727  97.8143   1.8325 0012507 139.3083 220.9080 15.04681666325857
GAOFEN DUOMO (GFDM)     
1 45856U 20042A   26170.84974100  .00000074  00000+0  17470-4 0  9998
2 45856  97.7740 230.6391 0012367  67.3419 292.9098 14.76881259321407
ZIYUAN 3-03 (ZY 3-03)   
1 45939U 20051A   26170.88103502  .00000997  00000+0  47602-4 0  9998
2 45939  97.2825 238.5201 0002694 332.3188  27.7904 15.21269321327750
NEMO-HD                 
1 46277U 20061F   26170.85066995  .00008726  00000+0  18922-3 0  9996
2 46277  97.1914 232.7769 0002160  79.2685 280.8807 15.44639002322397
NAPA-1                  
1 46320U 20061BA  26170.84283170  .00059062  00000+0  52618-3 0  9999
2 46320  97.2454 245.1100 0001570 174.0522 186.0758 15.68291132322151
JILIN-1 GAOFEN 3E       
1 46457U 20065D   26170.84560367  .00053691  00000+0  56788-3 0  9994
2 46457  97.2237 223.5164 0012910 149.0899 211.1123 15.63906383320172
JILIN-1 GAOFEN 3F       
1 46458U 20065E   26170.81113751  .00048328  00000+0  56898-3 0  9996
2 46458  97.2194 220.8043 0014464 137.8602 222.3770 15.61138119320112
JILIN-1 GAOFEN 3G       
1 46459U 20065F   26170.44031036  .00091721  00000+0  70919-3 0  9996
2 46459  97.2260 227.2682 0007741  56.5145 303.6858 15.71579926320291
JILIN-1 GAOFEN 3H       
1 46460U 20065G   26170.86361050  .00066344  00000+0  59445-3 0  9990
2 46460  97.2204 224.0181 0003236 332.5585  27.5505 15.68118417320303
HAIYANG-2C              
1 46469U 20066A   26170.84068729 -.00000169  00000+0 -79270-4 0  9999
2 46469  65.9952 208.6776 0008826 237.8020 122.2193 13.83375602289860
HJ-2A                   
1 46478U 20067A   26170.80815486  .00000530  00000+0  83219-4 0  9994
2 46478  97.8825 249.1189 0002372 254.0405 106.0544 14.76519240308648
HJ-2B                   
1 46479U 20067B   26170.84496587  .00000384  00000+0  62181-4 0  9998
2 46479  97.8889 250.1785 0001339 101.2677 258.8683 14.76560137308651
GONETS-M 17             
1 46486U 20068A   26170.86585166 -.00000077  00000+0 -62539-3 0  9998
2 46486  82.4990 345.8353 0022983  31.8656 328.3809 12.42872863259491
GONETS-M 18             
1 46487U 20068B   26170.82950749 -.00000068  00000+0 -55932-3 0  9997
2 46487  82.4944 344.9747 0020209  28.6735 331.5452 12.42873254259472
GONETS-M 19             
1 46488U 20068C   26170.80488706 -.00000073  00000+0 -59932-3 0  9995
2 46488  82.4969 345.4410 0014170  44.4234 315.7980 12.42891785259573
DEKART                  
1 46493U 20068H   26170.81030588  .00010095  00000+0  27757-3 0  9996
2 46493  97.8741 180.2682 0006994 274.2746  85.7697 15.37399147316170
